TIANMU-1 07             
1 57399U 23101A   26065.57454230  .00008352  00000+0  29795-3 0  9991
2 57399  97.2728 118.5929 0004609 142.4105 217.7458 15.29118809145964
STARLINK-32792          
1 62504U 25003T   26068.01709129  .00034798  00000+0  12676-2 0  9992
2 62504  43.0047 292.3353 0002838 267.8512  92.2014 15.27590551 66455
